{"fetched_at":"2026-03-30T20:46:33Z","count":15425,"tles":[{"name":"ONEWEB-0026","line1":"1 45139U 20008J   26087.81806705 -.00000286  00000+0 -84285-3 0  9997","line2":"2 45139  87.8907  37.0400 0001982  76.5314 283.6035 13.11419080300573","category":"Other"}]}