{
  "norad_id": 45139,
  "name": "ONEWEB-0026",
  "history": [
    {
      "epoch": "2026-03-28T19:38:00.993120",
      "apogee_km": 1219.180475874633,
      "perigee_km": 1216.1684328005294,
      "latitude_deg": 80.8022419041676,
      "longitude_deg": -147.56556320004165,
      "semi_major_axis_km": 7595.8114543375805,
      "eccentricity": 0.00019827,
      "inclination_deg": 87.8907,
      "raan_deg": 37.04,
      "arg_perigee_deg": 76.5314,
      "mean_anomaly_deg": 283.6035,
      "mean_motion_rev_day": 13.1141908
    }
  ]
}